{
  "type": "FeatureCollection",
  "features": [
    {
      "type": "Feature",
      "properties": {
        "norad_id": 34350,
        "name": "IRIDIUM 33 DEB",
        "group": "iridium-33-debris",
        "lat": -73.37767149528007,
        "lon": -161.3324463235803,
        "alt_km": 749.2206520299078,
        "timestamp": "2025-12-04T19:33:59.985032+00:00",
        "meta_object_name": "IRIDIUM 33 DEB",
        "meta_object_id": "1997-051ES",
        "meta_epoch": "2025-12-04T01:54:53.906976",
        "meta_mean_motion": 14.45357099,
        "meta_eccentricity": 0.00219337,
        "meta_inclination": 86.3281,
        "meta_ra_of_asc_node": 6.5649,
        "meta_arg_of_pericenter": 162.4763,
        "meta_mean_anomaly": 226.5026,
        "meta_ephemeris_type": 0,
        "meta_classification_type": "U",
        "meta_norad_cat_id": 34350,
        "meta_element_set_no": 999,
        "meta_rev_at_epoch": 88168,
        "meta_bstar": 0.00057236591,
        "meta_mean_motion_dot": 2.036e-05,
        "meta_mean_motion_ddot": 0,
        "tle_line1": "1 34350U 97051ES  25338.07979059  .00002036  00000+0  57237-3 0  9991",
        "tle_line2": "2 34350  86.3281   6.5649 0021933 162.4763 226.5026 14.45357099881683"
      },
      "geometry": {
        "type": "Point",
        "coordinates": [
          -161.3324463235803,
          -73.37767149528007
        ]
      }
    },
    {
      "type": "Feature",
      "properties": {
        "norad_id": 34366,
        "name": "IRIDIUM 33 DEB",
        "group": "iridium-33-debris",
        "lat": -24.390367362861483,
        "lon": 51.110136724158544,
        "alt_km": 733.6773813982527,
        "timestamp": "2025-12-04T19:33:59.985041+00:00",
        "meta_object_name": "IRIDIUM 33 DEB",
        "meta_object_id": "1997-051FJ",
        "meta_epoch": "2025-12-04T06:46:15.002976",
        "meta_mean_motion": 14.53935421,
        "meta_eccentricity": 0.00218081,
        "meta_inclination": 86.3708,
        "meta_ra_of_asc_node": 52.9909,
        "meta_arg_of_pericenter": 166.8355,
        "meta_mean_anomaly": 259.9318,
        "meta_ephemeris_type": 0,
        "meta_classification_type": "U",
        "meta_norad_cat_id": 34366,
        "meta_element_set_no": 999,
        "meta_rev_at_epoch": 88059,
        "meta_bstar": 0.0030543138,
        "meta_mean_motion_dot": 0.00012927,
        "meta_mean_motion_ddot": 0,
        "tle_line1": "1 34366U 97051FJ  25338.28211809  .00012927  00000+0  30543-2 0  9993",
        "tle_line2": "2 34366  86.3708  52.9909 0021808 166.8355 259.9318 14.53935421880597"
      },
      "geometry": {
        "type": "Point",
        "coordinates": [
          51.110136724158544,
          -24.390367362861483
        ]
      }
    },
    {
      "type": "Feature",
      "properties": {
        "norad_id": 34375,
        "name": "IRIDIUM 33 DEB",
        "group": "iridium-33-debris",
        "lat": -17.8318176615106,
        "lon": 7.040098889871364,
        "alt_km": 785.5806008905911,
        "timestamp": "2025-12-04T19:33:59.985051+00:00",
        "meta_object_name": "IRIDIUM 33 DEB",
        "meta_object_id": "1997-051FT",
        "meta_epoch": "2025-12-04T02:19:13.605600",
        "meta_mean_motion": 14.17969108,
        "meta_eccentricity": 0.01025635,
        "meta_inclination": 86.4331,
        "meta_ra_of_asc_node": 186.18,
        "meta_arg_of_pericenter": 153.93,
        "meta_mean_anomaly": 337.07,
        "meta_ephemeris_type": 0,
        "meta_classification_type": "U",
        "meta_norad_cat_id": 34375,
        "meta_element_set_no": 999,
        "meta_rev_at_epoch": 86589,
        "meta_bstar": 0.00070164929,
        "meta_mean_motion_dot": 1.531e-05,
        "meta_mean_motion_ddot": 0,
        "tle_line1": "1 34375U 97051FT  25338.09668525  .00001531  00000+0  70165-3 0  9997",
        "tle_line2": "2 34375  86.4331 186.1800 0102563 153.9300 337.0700 14.17969108865893"
      },
      "geometry": {
        "type": "Point",
        "coordinates": [
          7.040098889871364,
          -17.8318176615106
        ]
      }
    },
    {
      "type": "Feature",
      "properties": {
        "norad_id": 34376,
        "name": "IRIDIUM 33 DEB",
        "group": "iridium-33-debris",
        "lat": 21.422849166385237,
        "lon": 11.557880595043063,
        "alt_km": 703.7106005142559,
        "timestamp": "2025-12-04T19:33:59.985060+00:00",
        "meta_object_name": "IRIDIUM 33 DEB",
        "meta_object_id": "1997-051FU",
        "meta_epoch": "2025-12-04T06:19:49.812672",
        "meta_mean_motion": 14.62377993,
        "meta_eccentricity": 0.00261889,
        "meta_inclination": 86.2991,
        "meta_ra_of_asc_node": 10.3504,
        "meta_arg_of_pericenter": 195.5918,
        "meta_mean_anomaly": 164.449,
        "meta_ephemeris_type": 0,
        "meta_classification_type": "U",
        "meta_norad_cat_id": 34376,
        "meta_element_set_no": 999,
        "meta_rev_at_epoch": 87883,
        "meta_bstar": 0.0035031182,
        "meta_mean_motion_dot": 0.00017843,
        "meta_mean_motion_ddot": 0,
        "tle_line1": "1 34376U 97051FU  25338.26377098  .00017843  00000+0  35031-2 0  9994",
        "tle_line2": "2 34376  86.2991  10.3504 0026188 195.5918 164.4490 14.62377993878839"
      },
      "geometry": {
        "type": "Point",
        "coordinates": [
          11.557880595043063,
          21.422849166385237
        ]
      }
    },
    {
      "type": "Feature",
      "properties": {
        "norad_id": 34486,
        "name": "IRIDIUM 33 DEB",
        "group": "iridium-33-debris",
        "lat": 16.71922388366756,
        "lon": 16.76693532466317,
        "alt_km": 587.0694580246,
        "timestamp": "2025-12-04T19:33:59.985069+00:00",
        "meta_object_name": "IRIDIUM 33 DEB",
        "meta_object_id": "1997-051GB",
        "meta_epoch": "2025-12-04T03:41:51.118368",
        "meta_mean_motion": 14.951815,
        "meta_eccentricity": 0.00130231,
        "meta_inclination": 86.394,
        "meta_ra_of_asc_node": 15.9863,
        "meta_arg_of_pericenter": 140.9136,
        "meta_mean_anomaly": 279.2911,
        "meta_ephemeris_type": 0,
        "meta_classification_type": "U",
        "meta_norad_cat_id": 34486,
        "meta_element_set_no": 999,
        "meta_rev_at_epoch": 88858,
        "meta_bstar": 0.0048037162,
        "meta_mean_motion_dot": 0.00053192,
        "meta_mean_motion_ddot": 0,
        "tle_line1": "1 34486U 97051GB  25338.15406387  .00053192  00000+0  48037-2 0  9995",
        "tle_line2": "2 34486  86.3940  15.9863 0013023 140.9136 279.2911 14.95181500888584"
      },
      "geometry": {
        "type": "Point",
        "coordinates": [
          16.76693532466317,
          16.71922388366756
        ]
      }
    },
    {
      "type": "Feature",
      "properties": {
        "norad_id": 34487,
        "name": "IRIDIUM 33 DEB",
        "group": "iridium-33-debris",
        "lat": 81.37775394515465,
        "lon": 40.72637434882035,
        "alt_km": 733.1801082805405,
        "timestamp": "2025-12-04T19:33:59.985078+00:00",
        "meta_object_name": "IRIDIUM 33 DEB",
        "meta_object_id": "1997-051GC",
        "meta_epoch": "2025-12-03T10:12:00.081216",
        "meta_mean_motion": 14.43196495,
        "meta_eccentricity": 0.00319082,
        "meta_inclination": 86.3443,
        "meta_ra_of_asc_node": 16.3873,
        "meta_arg_of_pericenter": 157.9365,
        "meta_mean_anomaly": 266.0119,
        "meta_ephemeris_type": 0,
        "meta_classification_type": "U",
        "meta_norad_cat_id": 34487,
        "meta_element_set_no": 999,
        "meta_rev_at_epoch": 88114,
        "meta_bstar": 0.00029137047,
        "meta_mean_motion_dot": 1.005e-05,
        "meta_mean_motion_ddot": 0,
        "tle_line1": "1 34487U 97051GC  25337.42500094  .00001005  00000+0  29137-3 0  9992",
        "tle_line2": "2 34487  86.3443  16.3873 0031908 157.9365 266.0119 14.43196495881144"
      },
      "geometry": {
        "type": "Point",
        "coordinates": [
          40.72637434882035,
          81.37775394515465
        ]
      }
    },
    {
      "type": "Feature",
      "properties": {
        "norad_id": 34488,
        "name": "IRIDIUM 33 DEB",
        "group": "iridium-33-debris",
        "lat": 24.346446658764936,
        "lon": 128.0641557468421,
        "alt_km": 486.022663517645,
        "timestamp": "2025-12-04T19:33:59.985087+00:00",
        "meta_object_name": "IRIDIUM 33 DEB",
        "meta_object_id": "1997-051GD",
        "meta_epoch": "2025-12-04T04:43:46.394400",
        "meta_mean_motion": 15.26377687,
        "meta_eccentricity": 0.00155256,
        "meta_inclination": 86.3256,
        "meta_ra_of_asc_node": 310.0352,
        "meta_arg_of_pericenter": 64.3641,
        "meta_mean_anomaly": 295.9208,
        "meta_ephemeris_type": 0,
        "meta_classification_type": "U",
        "meta_norad_cat_id": 34488,
        "meta_element_set_no": 999,
        "meta_rev_at_epoch": 89109,
        "meta_bstar": 0.0085126879,
        "meta_mean_motion_dot": 0.00228455,
        "meta_mean_motion_ddot": 0,
        "tle_line1": "1 34488U 97051GD  25338.19706475  .00228455  00000+0  85127-2 0  9999",
        "tle_line2": "2 34488  86.3256 310.0352 0015525  64.3641 295.9208 15.26377687891099"
      },
      "geometry": {
        "type": "Point",
        "coordinates": [
          128.0641557468421,
          24.346446658764936
        ]
      }
    }
  ]
}